{"type": "FeatureCollection", "features": [ {"type": "Feature", "properties": {"norad_id": 34058, "name": "COSMOS 2251 DEB", "group": "cosmos-2251-debris", "lat": -3.7214316028939565, "lon": -8.453634455639882, "alt_km": 786.4105287346138, "timestamp": "2025-12-17T10:52:54.745948+00:00", "meta": {"OBJECT_NAME": "COSMOS 2251 DEB", "OBJECT_ID": "1993-036JV", "EPOCH": "2025-12-16T22:11:51.454176", "MEAN_MOTION": 13.5608274, "ECCENTRICITY": 0.03777727, "INCLINATION": 73.9314, "RA_OF_ASC_NODE": 171.3287, "ARG_OF_PERICENTER": 165.7713, "MEAN_ANOMALY": 317.4426, "EPHEMERIS_TYPE": 0, "CLASSIFICATION_TYPE": "U", "NORAD_CAT_ID": 34058, "ELEMENT_SET_NO": 999, "REV_AT_EPOCH": 83199, "BSTAR": 0.0006582922, "MEAN_MOTION_DOT": 7.1e-06, "MEAN_MOTION_DDOT": 0}, "tle": {"line1": "1 34058U 93036JV  25350.92490109  .00000710  00000+0  65829-3 0  9990", "line2": "2 34058  73.9314 171.3287 0377772 165.7713 317.4426 13.56082740831994"}}, "geometry": {"type": "Point", "coordinates": [-8.453634455639882, -3.7214316028939565]}}, {"type": "Feature", "properties": {"norad_id": 34059, "name": "COSMOS 2251 DEB", "group": "cosmos-2251-debris", "lat": -61.06307667538383, "lon": 28.56477662621121, "alt_km": 709.7424206949327, "timestamp": "2025-12-17T10:52:54.745958+00:00", "meta": {"OBJECT_NAME": "COSMOS 2251 DEB", "OBJECT_ID": "1993-036JW", "EPOCH": "2025-12-16T22:56:14.080128", "MEAN_MOTION": 14.52972295, "ECCENTRICITY": 0.00185557, "INCLINATION": 74.0367, "RA_OF_ASC_NODE": 178.323, "ARG_OF_PERICENTER": 255.2342, "MEAN_ANOMALY": 268.0711, "EPHEMERIS_TYPE": 0, "CLASSIFICATION_TYPE": "U", "NORAD_CAT_ID": 34059, "ELEMENT_SET_NO": 999, "REV_AT_EPOCH": 88520, "BSTAR": 0.00057702827, "MEAN_MOTION_DOT": 2.357e-05, "MEAN_MOTION_DDOT": 0}, "tle": {"line1": "1 34059U 93036JW  25350.95571852  .00002357  00000+0  57703-3 0  9990", "line2": "2 34059  74.0367 178.3230 0018555 255.2342 268.0711 14.52972295885205"}}, "geometry": {"type": "Point", "coordinates": [28.56477662621121, -61.06307667538383]}}, {"type": "Feature", "properties": {"norad_id": 34061, "name": "COSMOS 2251 DEB", "group": "cosmos-2251-debris", "lat": 18.2281604587879, "lon": -99.91492870666421, "alt_km": 747.4380302001337, "timestamp": "2025-12-17T10:52:54.745968+00:00", "meta": {"OBJECT_NAME": "COSMOS 2251 DEB", "OBJECT_ID": "1993-036JY", "EPOCH": "2025-12-16T18:25:27.636672", "MEAN_MOTION": 14.40366406, "ECCENTRICITY": 0.00206552, "INCLINATION": 74.0391, "RA_OF_ASC_NODE": 255.9439, "ARG_OF_PERICENTER": 332.2192, "MEAN_ANOMALY": 92.4008, "EPHEMERIS_TYPE": 0, "CLASSIFICATION_TYPE": "U", "NORAD_CAT_ID": 34061, "ELEMENT_SET_NO": 999, "REV_AT_EPOCH": 88238, "BSTAR": 0.00029066516, "MEAN_MOTION_DOT": 8.98e-06, "MEAN_MOTION_DDOT": 0}, "tle": {"line1": "1 34061U 93036JY  25350.76768098  .00000898  00000+0  29067-3 0  9992", "line2": "2 34061  74.0391 255.9439 0020655 332.2192  92.4008 14.40366406882383"}}, "geometry": {"type": "Point", "coordinates": [-99.91492870666421, 18.2281604587879]}}, {"type": "Feature", "properties": {"norad_id": 34062, "name": "COSMOS 2251 DEB", "group": "cosmos-2251-debris", "lat": 64.39054590326833, "lon": 165.45951740974337, "alt_km": 664.1994982219012, "timestamp": "2025-12-17T10:52:54.745979+00:00", "meta": {"OBJECT_NAME": "COSMOS 2251 DEB", "OBJECT_ID": "1993-036JZ", "EPOCH": "2025-12-16T20:31:57.200160", "MEAN_MOTION": 14.7883287, "ECCENTRICITY": 0.00741228, "INCLINATION": 74.0272, "RA_OF_ASC_NODE": 129.9399, "ARG_OF_PERICENTER": 208.1852, "MEAN_ANOMALY": 280.4266, "EPHEMERIS_TYPE": 0, "CLASSIFICATION_TYPE": "U", "NORAD_CAT_ID": 34062, "ELEMENT_SET_NO": 999, "REV_AT_EPOCH": 88656, "BSTAR": 0.0021634887, "MEAN_MOTION_DOT": 0.00016681, "MEAN_MOTION_DDOT": 0}, "tle": {"line1": "1 34062U 93036JZ  25350.85552315  .00016681  00000+0  21635-2 0  9995", "line2": "2 34062  74.0272 129.9399 0074122 208.1852 280.4266 14.78832870886562"}}, "geometry": {"type": "Point", "coordinates": [165.45951740974337, 64.39054590326833]}}, {"type": "Feature", "properties": {"norad_id": 34064, "name": "COSMOS 2251 DEB", "group": "cosmos-2251-debris", "lat": 25.188590355998894, "lon": -90.13720916227174, "alt_km": 741.2941419655826, "timestamp": "2025-12-17T10:52:54.745989+00:00", "meta": {"OBJECT_NAME": "COSMOS 2251 DEB", "OBJECT_ID": "1993-036KB", "EPOCH": "2025-12-16T05:30:15.602400", "MEAN_MOTION": 14.42351303, "ECCENTRICITY": 0.00222339, "INCLINATION": 74.033, "RA_OF_ASC_NODE": 264.3939, "ARG_OF_PERICENTER": 330.4586, "MEAN_ANOMALY": 182.353, "EPHEMERIS_TYPE": 0, "CLASSIFICATION_TYPE": "U", "NORAD_CAT_ID": 34064, "ELEMENT_SET_NO": 999, "REV_AT_EPOCH": 88192, "BSTAR": 0.00041447339, "MEAN_MOTION_DOT": 1.347e-05, "MEAN_MOTION_DDOT": 0}, "tle": {"line1": "1 34064U 93036KB  25350.22934725  .00001347  00000+0  41447-3 0  9994", "line2": "2 34064  74.0330 264.3939 0022233 330.4586 182.3530 14.42351303881929"}}, "geometry": {"type": "Point", "coordinates": [-90.13720916227174, 25.188590355998894]}}, {"type": "Feature", "properties": {"norad_id": 34065, "name": "COSMOS 2251 DEB", "group": "cosmos-2251-debris", "lat": -31.91376399960965, "lon": -120.83044608623932, "alt_km": 759.4405101528328, "timestamp": "2025-12-17T10:52:54.745999+00:00", "meta": {"OBJECT_NAME": "COSMOS 2251 DEB", "OBJECT_ID": "1993-036KC", "EPOCH": "2025-12-16T20:19:26.671872", "MEAN_MOTION": 14.38067251, "ECCENTRICITY": 0.00165488, "INCLINATION": 74.0354, "RA_OF_ASC_NODE": 250.5559, "ARG_OF_PERICENTER": 347.333, "MEAN_ANOMALY": 80.4736, "EPHEMERIS_TYPE": 0, "CLASSIFICATION_TYPE": "U", "NORAD_CAT_ID": 34065, "ELEMENT_SET_NO": 999, "REV_AT_EPOCH": 88264, "BSTAR": 0.00014798021, "MEAN_MOTION_DOT": 4.22e-06, "MEAN_MOTION_DDOT": 0}, "tle": {"line1": "1 34065U 93036KC  25350.84683648  .00000422  00000+0  14798-3 0  9990", "line2": "2 34065  74.0354 250.5559 0016548 347.3330  80.4736 14.38067251882644"}}, "geometry": {"type": "Point", "coordinates": [-120.83044608623932, -31.91376399960965]}}, {"type": "Feature", "properties": {"norad_id": 34070, "name": "COSMOS 2251 DEB", "group": "cosmos-2251-debris", "lat": 26.161269031290963, "lon": -81.09956684617697, "alt_km": 632.669039679261, "timestamp": "2025-12-17T10:52:54.746009+00:00", "meta": {"OBJECT_NAME": "COSMOS 2251 DEB", "OBJECT_ID": "1993-036KH", "EPOCH": "2025-12-16T18:29:46.618080", "MEAN_MOTION": 14.7716911, "ECCENTRICITY": 0.0018417, "INCLINATION": 74.0002, "RA_OF_ASC_NODE": 108.3443, "ARG_OF_PERICENTER": 224.7836, "MEAN_ANOMALY": 258.8588, "EPHEMERIS_TYPE": 0, "CLASSIFICATION_TYPE": "U", "NORAD_CAT_ID": 34070, "ELEMENT_SET_NO": 999, "REV_AT_EPOCH": 88670, "BSTAR": 0.0019595511, "MEAN_MOTION_DOT": 0.00013902, "MEAN_MOTION_DDOT": 0}, "tle": {"line1": "1 34070U 93036KH  25350.77067845  .00013902  00000+0  19596-2 0  9990", "line2": "2 34070  74.0002 108.3443 0018417 224.7836 258.8588 14.77169110886705"}}, "geometry": {"type": "Point", "coordinates": [-81.09956684617697, 26.161269031290963]}}, {"type": "Feature", "properties": {"norad_id": 34114, "name": "COSMOS 2251 DEB", "group": "cosmos-2251-debris", "lat": 9.320689304900252, "lon": 37.589407271441615, "alt_km": 673.9937216589724, "timestamp": "2025-12-17T10:52:54.746019+00:00", "meta": {"OBJECT_NAME": "COSMOS 2251 DEB", "OBJECT_ID": "1993-036KK", "EPOCH": "2025-12-16T12:16:56.152992", "MEAN_MOTION": 14.56430696, "ECCENTRICITY": 0.00475815, "INCLINATION": 74.0597, "RA_OF_ASC_NODE": 36.6841, "ARG_OF_PERICENTER": 29.9804, "MEAN_ANOMALY": 84.7964, "EPHEMERIS_TYPE": 0, "CLASSIFICATION_TYPE": "U", "NORAD_CAT_ID": 34114, "ELEMENT_SET_NO": 999, "REV_AT_EPOCH": 87856, "BSTAR": 0.0010469782, "MEAN_MOTION_DOT": 4.695e-05, "MEAN_MOTION_DDOT": 0}, "tle": {"line1": "1 34114U 93036KK  25350.51176103  .00004695  00000+0  10470-2 0  9990", "line2": "2 34114  74.0597  36.6841 0047581  29.9804  84.7964 14.56430696878568"}}, "geometry": {"type": "Point", "coordinates": [37.589407271441615, 9.320689304900252]}}, {"type": "Feature", "properties": {"norad_id": 34115, "name": "COSMOS 2251 DEB", "group": "cosmos-2251-debris", "lat": 23.842285768539877, "lon": 45.36623020856931, "alt_km": 633.374642955695, "timestamp": "2025-12-17T10:52:54.746030+00:00", "meta": {"OBJECT_NAME": "COSMOS 2251 DEB", "OBJECT_ID": "1993-036KL", "EPOCH": "2025-12-16T17:57:29.958624", "MEAN_MOTION": 14.79545564, "ECCENTRICITY": 0.00287043, "INCLINATION": 74.0067, "RA_OF_ASC_NODE": 234.038, "ARG_OF_PERICENTER": 56.3802, "MEAN_ANOMALY": 304.0106, "EPHEMERIS_TYPE": 0, "CLASSIFICATION_TYPE": "U", "NORAD_CAT_ID": 34115, "ELEMENT_SET_NO": 999, "REV_AT_EPOCH": 89471, "BSTAR": 0.00070735425, "MEAN_MOTION_DOT": 5.3e-05, "MEAN_MOTION_DDOT": 0}, "tle": {"line1": "1 34115U 93036KL  25350.74826341  .00005300  00000+0  70735-3 0  9997", "line2": "2 34115  74.0067 234.0380 0028704  56.3802 304.0106 14.79545564894718"}}, "geometry": {"type": "Point", "coordinates": [45.36623020856931, 23.842285768539877]}}, {"type": "Feature", "properties": {"norad_id": 34116, "name": "COSMOS 2251 DEB", "group": "cosmos-2251-debris", "lat": 26.986486760810127, "lon": -177.73483699667295, "alt_km": 720.788766393428, "timestamp": "2025-12-17T10:52:54.746040+00:00", "meta": {"OBJECT_NAME": "COSMOS 2251 DEB", "OBJECT_ID": "1993-036KM", "EPOCH": "2025-12-16T23:45:56.296224", "MEAN_MOTION": 14.53001074, "ECCENTRICITY": 0.00119297, "INCLINATION": 74.0394, "RA_OF_ASC_NODE": 174.7587, "ARG_OF_PERICENTER": 250.7603, "MEAN_ANOMALY": 235.6133, "EPHEMERIS_TYPE": 0, "CLASSIFICATION_TYPE": "U", "NORAD_CAT_ID": 34116, "ELEMENT_SET_NO": 999, "REV_AT_EPOCH": 88548, "BSTAR": 0.00059980286, "MEAN_MOTION_DOT": 2.45e-05, "MEAN_MOTION_DDOT": 0}, "tle": {"line1": "1 34116U 93036KM  25350.99023491  .00002450  00000+0  59980-3 0  9992", "line2": "2 34116  74.0394 174.7587 0011929 250.7603 235.6133 14.53001074885489"}}, "geometry": {"type": "Point", "coordinates": [-177.73483699667295, 26.986486760810127]}}]}